[
    {
        "Altitude(m)": 714137.3870932057,
        "Argument of Periapsis(deg)": 0.006834072711976239,
        "Eccentricity": 0.0,
        "Inclination(deg)": 45.0,
        "Latitude(deg)": -36.07331145439973,
        "Longitude(deg)": -134.01749246820938,
        "Mean Anomaly(deg)": 236.01082998848852,
        "RAAN(deg)": 99.99354883512507,
        "Satellite Name": "Constellation 1 454",
        "Satellite Number": 454,
        "Semi-Major Axis(m)": 7083131.272910544,
        "Time(s)": 114
    },
    {
        "Altitude(m)": 714149.4759685425,
        "Argument of Periapsis(deg)": 0.006894020718221645,
        "Eccentricity": 0.0,
        "Inclination(deg)": 45.0,
        "Latitude(deg)": -36.102911452451586,
        "Longitude(deg)": -133.9562725106538,
        "Mean Anomaly(deg)": 236.07153112873843,
        "RAAN(deg)": 99.99349224595952,
        "Satellite Name": "Constellation 1 454",
        "Satellite Number": 454,
        "Semi-Major Axis(m)": 7083131.272910544,
        "Time(s)": 115
    },
    {
        "Altitude(m)": 714161.5520828479,
        "Argument of Periapsis(deg)": 0.006953968724467052,
        "Eccentricity": 0.0,
        "Inclination(deg)": 45.0,
        "Latitude(deg)": -36.132475617275496,
        "Longitude(deg)": -133.89500370208955,
        "Mean Anomaly(deg)": 236.1322322689883,
        "RAAN(deg)": 99.99343565679393,
        "Satellite Name": "Constellation 1 454",
        "Satellite Number": 454,
        "Semi-Major Axis(m)": 7083131.272910544,
        "Time(s)": 116
    },
    {
        "Altitude(m)": 714173.6153925866,
        "Argument of Periapsis(deg)": 0.007013916730712457,
        "Eccentricity": 0.0,
        "Inclination(deg)": 45.0,
        "Latitude(deg)": -36.162003884333465,
        "Longitude(deg)": -133.83368601200416,
        "Mean Anomaly(deg)": 236.1929334092382,
        "RAAN(deg)": 99.99337906762837,
        "Satellite Name": "Constellation 1 454",
        "Satellite Number": 454,
        "Semi-Major Axis(m)": 7083131.272910544,
        "Time(s)": 117
    },
    {
        "Altitude(m)": 714185.665854259,
        "Argument of Periapsis(deg)": 0.007073864736957864,
        "Eccentricity": 0.0,
        "Inclination(deg)": 45.0,
        "Latitude(deg)": -36.19149618903233,
        "Longitude(deg)": -133.77231941013284,
        "Mean Anomaly(deg)": 236.25363454948814,
        "RAAN(deg)": 99.99332247846279,
        "Satellite Name": "Constellation 1 454",
        "Satellite Number": 454,
        "Semi-Major Axis(m)": 7083131.272910544,
        "Time(s)": 118
    },
    {
        "Altitude(m)": 714197.7034244203,
        "Argument of Periapsis(deg)": 0.0071338127432032696,
        "Eccentricity": 0.0,
        "Inclination(deg)": 45.0,
        "Latitude(deg)": -36.22095246672438,
        "Longitude(deg)": -133.71090403455545,
        "Mean Anomaly(deg)": 236.31433568973802,
        "RAAN(deg)": 99.99326588929723,
        "Satellite Name": "Constellation 1 454",
        "Satellite Number": 454,
        "Semi-Major Axis(m)": 7083131.272910544,
        "Time(s)": 119
    },
    {
        "Altitude(m)": 714209.7280596566,
        "Argument of Periapsis(deg)": 0.007193760749448674,
        "Eccentricity": 0.0,
        "Inclination(deg)": 45.0,
        "Latitude(deg)": -36.250372652708,
        "Longitude(deg)": -133.6494395193103,
        "Mean Anomaly(deg)": 236.37503682998792,
        "RAAN(deg)": 99.99320930013167,
        "Satellite Name": "Constellation 1 454",
        "Satellite Number": 454,
        "Semi-Major Axis(m)": 7083131.272910544,
        "Time(s)": 120
    },
    {
        "Altitude(m)": 714221.739716604,
        "Argument of Periapsis(deg)": 0.007253708755694079,
        "Eccentricity": 0.0,
        "Inclination(deg)": 45.0,
        "Latitude(deg)": -36.279756682226854,
        "Longitude(deg)": -133.58792600297792,
        "Mean Anomaly(deg)": 236.43573797023777,
        "RAAN(deg)": 99.99315271096609,
        "Satellite Name": "Constellation 1 454",
        "Satellite Number": 454,
        "Semi-Major Axis(m)": 7083131.272910544,
        "Time(s)": 121
    },
    {
        "Altitude(m)": 714233.7383519259,
        "Argument of Periapsis(deg)": 0.0073136567619394854,
        "Eccentricity": 0.0,
        "Inclination(deg)": 45.0,
        "Latitude(deg)": -36.309104490471,
        "Longitude(deg)": -133.5263634562937,
        "Mean Anomaly(deg)": 236.49643911048776,
        "RAAN(deg)": 99.99309612180052,
        "Satellite Name": "Constellation 1 454",
        "Satellite Number": 454,
        "Semi-Major Axis(m)": 7083131.272910544,
        "Time(s)": 122
    },
    {
        "Altitude(m)": 714245.7239223473,
        "Argument of Periapsis(deg)": 0.0073736047681848904,
        "Eccentricity": 0.0,
        "Inclination(deg)": 45.0,
        "Latitude(deg)": -36.33841601257689,
        "Longitude(deg)": -133.46475185024659,
        "Mean Anomaly(deg)": 236.5571402507376,
        "RAAN(deg)": 99.99303953263497,
        "Satellite Name": "Constellation 1 454",
        "Satellite Number": 454,
        "Semi-Major Axis(m)": 7083131.272910544,
        "Time(s)": 123
    },
    {
        "Altitude(m)": 714257.6963846248,
        "Argument of Periapsis(deg)": 0.007433552774430298,
        "Eccentricity": 0.0,
        "Inclination(deg)": 45.0,
        "Latitude(deg)": -36.36769118362753,
        "Longitude(deg)": -133.40309115608065,
        "Mean Anomaly(deg)": 236.61784139098748,
        "RAAN(deg)": 99.99298294346939,
        "Satellite Name": "Constellation 1 454",
        "Satellite Number": 454,
        "Semi-Major Axis(m)": 7083131.272910544,
        "Time(s)": 124
    },
    {
        "Altitude(m)": 714269.6556955589,
        "Argument of Periapsis(deg)": 0.007493500780675703,
        "Eccentricity": 0.0,
        "Inclination(deg)": 45.0,
        "Latitude(deg)": -36.39692993865299,
        "Longitude(deg)": -133.34138134529567,
        "Mean Anomaly(deg)": 236.67854253123738,
        "RAAN(deg)": 99.99292635430382,
        "Satellite Name": "Constellation 1 454",
        "Satellite Number": 454,
        "Semi-Major Axis(m)": 7083131.272910544,
        "Time(s)": 125
    },
    {
        "Altitude(m)": 714281.6018119944,
        "Argument of Periapsis(deg)": 0.007553448786921108,
        "Eccentricity": 0.0,
        "Inclination(deg)": 45.0,
        "Latitude(deg)": -36.42613221263029,
        "Longitude(deg)": -133.2796225577464,
        "Mean Anomaly(deg)": 236.7392436714873,
        "RAAN(deg)": 99.99286976513824,
        "Satellite Name": "Constellation 1 454",
        "Satellite Number": 454,
        "Semi-Major Axis(m)": 7083131.272910544,
        "Time(s)": 126
    },
    {
        "Altitude(m)": 714293.534690818,
        "Argument of Periapsis(deg)": 0.007613396793166514,
        "Eccentricity": 0.0,
        "Inclination(deg)": 45.0,
        "Latitude(deg)": -36.45529794048463,
        "Longitude(deg)": -133.21781442925467,
        "Mean Anomaly(deg)": 236.79994481173722,
        "RAAN(deg)": 99.99281317597267,
        "Satellite Name": "Constellation 1 454",
        "Satellite Number": 454,
        "Semi-Major Axis(m)": 7083131.272910544,
        "Time(s)": 127
    },
    {
        "Altitude(m)": 714305.4542889618,
        "Argument of Periapsis(deg)": 0.007673344799411918,
        "Eccentricity": 0.0,
        "Inclination(deg)": 45.0,
        "Latitude(deg)": -36.484427057088176,
        "Longitude(deg)": -133.15595710019429,
        "Mean Anomaly(deg)": 236.8606459519871,
        "RAAN(deg)": 99.99275658680709,
        "Satellite Name": "Constellation 1 454",
        "Satellite Number": 454,
        "Semi-Major Axis(m)": 7083131.272910544,
        "Time(s)": 128
    },
    {
        "Altitude(m)": 714317.3605634012,
        "Argument of Periapsis(deg)": 0.007733292805657325,
        "Eccentricity": 0.0,
        "Inclination(deg)": 45.0,
        "Latitude(deg)": -36.51351949726135,
        "Longitude(deg)": -133.09405054310344,
        "Mean Anomaly(deg)": 236.921347092237,
        "RAAN(deg)": 99.99269999764154,
        "Satellite Name": "Constellation 1 454",
        "Satellite Number": 454,
        "Semi-Major Axis(m)": 7083131.272910544,
        "Time(s)": 129
    },
    {
        "Altitude(m)": 714329.2534711539,
        "Argument of Periapsis(deg)": 0.00779324081190273,
        "Eccentricity": 0.0,
        "Inclination(deg)": 45.0,
        "Latitude(deg)": -36.54257519577309,
        "Longitude(deg)": -133.03209473078263,
        "Mean Anomaly(deg)": 236.98204823248693,
        "RAAN(deg)": 99.99264340847597,
        "Satellite Name": "Constellation 1 454",
        "Satellite Number": 454,
        "Semi-Major Axis(m)": 7083131.272910544,
        "Time(s)": 130
    },
    {
        "Altitude(m)": 714341.132969279,
        "Argument of Periapsis(deg)": 0.007853188818148135,
        "Eccentricity": 0.0,
        "Inclination(deg)": 45.0,
        "Latitude(deg)": -36.571594087340564,
        "Longitude(deg)": -132.9700896362974,
        "Mean Anomaly(deg)": 237.0427493727368,
        "RAAN(deg)": 99.99258681931039,
        "Satellite Name": "Constellation 1 454",
        "Satellite Number": 454,
        "Semi-Major Axis(m)": 7083131.272910544,
        "Time(s)": 131
    },
    {
        "Altitude(m)": 714352.99901489,
        "Argument of Periapsis(deg)": 0.007913136824393542,
        "Eccentricity": 0.0,
        "Inclination(deg)": 45.0,
        "Latitude(deg)": -36.60057610663008,
        "Longitude(deg)": -132.9080352329783,
        "Mean Anomaly(deg)": 237.1034505129867,
        "RAAN(deg)": 99.99253023014482,
        "Satellite Name": "Constellation 1 454",
        "Satellite Number": 454,
        "Semi-Major Axis(m)": 7083131.272910544,
        "Time(s)": 132
    }
]